[{"OBJECT_NAME":"WILDFIRE 2","OBJECT_ID":"2023-133L","EPOCH":"2026-03-09T19:22:31.583136","MEAN_MOTION":13.8518725,"ECCENTRICITY":0.00045046,"INCLINATION":80.993,"RA_OF_ASC_NODE":102.8595,"ARG_OF_PERICENTER":298.2911,"MEAN_ANOMALY":61.779,"EPHEMERIS_TYPE":0,"CLASSIFICATION_TYPE":"U","NORAD_CAT_ID":57767,"ELEMENT_SET_NO":999,"REV_AT_EPOCH":12724,"BSTAR":6.4756906e-5,"MEAN_MOTION_DOT":8.4e-7,"MEAN_MOTION_DDOT":0},{"OBJECT_NAME":"CZ-6A DEB","OBJECT_ID":"2024-140LS","EPOCH":"2026-03-09T14:49:13.286496","MEAN_MOTION":14.0970538,"ECCENTRICITY":0.012107,"INCLINATION":88.8149,"RA_OF_ASC_NODE":275.1938,"ARG_OF_PERICENTER":219.9551,"MEAN_ANOMALY":139.2679,"EPHEMERIS_TYPE":0,"CLASSIFICATION_TYPE":"U","NORAD_CAT_ID":60967,"ELEMENT_SET_NO":999,"REV_AT_EPOCH":7978,"BSTAR":0.0016661,"MEAN_MOTION_DOT":3.14e-5,"MEAN_MOTION_DDOT":0}]
